{"data":[{"attributes":{"phone_code":375,"cities":[],"name":"Andorra"},"id":"AD"},{"attributes":{"phone_code":971,"cities":[],"name":"United Arab Emirates Raddy"},"id":"AE"},{"attributes":{"phone_code":93,"cities":[],"name":"Afghanistan"},"id":"AF"},{"attributes":{"phone_code":1268,"cities":[],"name":"Antigua and Barbuda"},"id":"AG"},{"attributes":{"phone_code":1264,"cities":[],"name":"Anguilla"},"id":"AI"},{"attributes":{"phone_code":355,"cities":[],"name":"Albania"},"id":"AL"},{"attributes":{"phone_code":374,"cities":[],"name":"Armenia"},"id":"AM"},{"attributes":{"phone_code":599,"cities":[],"name":"Netherlands Antilles"},"id":"AN"},{"attributes":{"phone_code":244,"cities":[],"name":"Angola"},"id":"AO"},{"attributes":{"phone_code":0,"cities":[],"name":"Antarctica"},"id":"AQ"},{"attributes":{"phone_code":54,"cities":[],"name":"Argentina"},"id":"AR"},{"attributes":{"phone_code":1684,"cities":[],"name":"American Samoa"},"id":"AS"},{"attributes":{"phone_code":43,"cities":[],"name":"Austria"},"id":"AT"},{"attributes":{"phone_code":61,"cities":[],"name":"Australia"},"id":"AU"},{"attributes":{"phone_code":297,"cities":[],"name":"Aruba"},"id":"AW"},{"attributes":{"phone_code":994,"cities":[],"name":"Azerbaijan"},"id":"AZ"},{"attributes":{"phone_code":387,"cities":[],"name":"Bosnia and Herzegovina"},"id":"BA"},{"attributes":{"phone_code":1246,"cities":[],"name":"Barbados"},"id":"BB"},{"attributes":{"phone_code":880,"cities":[],"name":"Bangladesh"},"id":"BD"},{"attributes":{"phone_code":32,"cities":[],"name":"Belgium"},"id":"BE"},{"attributes":{"phone_code":226,"cities":[],"name":"Burkina Faso"},"id":"BF"},{"attributes":{"phone_code":359,"cities":[],"name":"Bulgaria"},"id":"BG"},{"attributes":{"phone_code":973,"cities":[],"name":"Bahrain"},"id":"BH"},{"attributes":{"phone_code":257,"cities":[],"name":"Burundi"},"id":"BI"},{"attributes":{"phone_code":229,"cities":[],"name":"Benin"},"id":"BJ"},{"attributes":{"phone_code":0,"cities":[],"name":"Saint Barthelemy"},"id":"BL"},{"attributes":{"phone_code":1441,"cities":[],"name":"Bermuda"},"id":"BM"},{"attributes":{"phone_code":0,"cities":[],"name":"Brunei"},"id":"BN"},{"attributes":{"phone_code":591,"cities":[],"name":"Bolivia"},"id":"BO"},{"attributes":{"phone_code":599,"cities":[],"name":"Caribbean Netherlands"},"id":"BQ"},{"attributes":{"phone_code":55,"cities":[],"name":"Brazil"},"id":"BR"},{"attributes":{"phone_code":1242,"cities":[],"name":"Bahamas"},"id":"BS"},{"attributes":{"phone_code":975,"cities":[],"name":"Bhutan"},"id":"BT"},{"attributes":{"phone_code":267,"cities":[],"name":"Botswana"},"id":"BW"},{"attributes":{"phone_code":375,"cities":[],"name":"Belarus"},"id":"BY"},{"attributes":{"phone_code":501,"cities":[],"name":"Belize"},"id":"BZ"},{"attributes":{"phone_code":1,"cities":[],"name":"Canada"},"id":"CA"},{"attributes":{"phone_code":0,"cities":[],"name":"Cocos Islands"},"id":"CC"},{"attributes":{"phone_code":0,"cities":[],"name":"Democratic Republic of the Congo"},"id":"CD"},{"attributes":{"phone_code":236,"cities":[],"name":"Central African Republic"},"id":"CF"},{"attributes":{"phone_code":0,"cities":[],"name":"Republic of the Congo"},"id":"CG"},{"attributes":{"phone_code":41,"cities":[],"name":"Switzerland"},"id":"CH"},{"attributes":{"phone_code":0,"cities":[],"name":"Ivory Coast"},"id":"CI"},{"attributes":{"phone_code":682,"cities":[],"name":"Cook Islands"},"id":"CK"},{"attributes":{"phone_code":56,"cities":[],"name":"Chile"},"id":"CL"},{"attributes":{"phone_code":237,"cities":[],"name":"Cameroon"},"id":"CM"},{"attributes":{"phone_code":86,"cities":[],"name":"China"},"id":"CN"},{"attributes":{"phone_code":57,"cities":[],"name":"Colombia"},"id":"CO"},{"attributes":{"phone_code":506,"cities":[],"name":"Costa Rica"},"id":"CR"},{"attributes":{"phone_code":53,"cities":[],"name":"Cuba"},"id":"CU"},{"attributes":{"phone_code":238,"cities":[],"name":"Cape Verde"},"id":"CV"},{"attributes":{"phone_code":0,"cities":[],"name":"Curacao"},"id":"CW"},{"attributes":{"phone_code":61,"cities":[],"name":"Christmas Island"},"id":"CX"},{"attributes":{"phone_code":357,"cities":[],"name":"Cyprus"},"id":"CY"},{"attributes":{"phone_code":420,"cities":[],"name":"Czech Republic"},"id":"CZ"},{"attributes":{"phone_code":49,"cities":[],"name":"Germany"},"id":"DE"},{"attributes":{"phone_code":253,"cities":[],"name":"Djibouti"},"id":"DJ"},{"attributes":{"phone_code":45,"cities":[],"name":"Denmark"},"id":"DK"},{"attributes":{"phone_code":1767,"cities":[],"name":"Dominica"},"id":"DM"},{"attributes":{"phone_code":1,"cities":[],"name":"Dominican Republic"},"id":"DO"},{"attributes":{"phone_code":213,"cities":[],"name":"Algeria"},"id":"DZ"},{"attributes":{"phone_code":593,"cities":[],"name":"Ecuador"},"id":"EC"},{"attributes":{"phone_code":372,"cities":[],"name":"Estonia"},"id":"EE"},{"attributes":{"phone_code":20,"cities":[],"name":"Egypt"},"id":"EG"},{"attributes":{"phone_code":212,"cities":[],"name":"Western Sahara"},"id":"EH"},{"attributes":{"phone_code":0,"cities":[],"name":"Eritrea"},"id":"ER"},{"attributes":{"phone_code":34,"cities":[],"name":"Spain"},"id":"ES"},{"attributes":{"phone_code":251,"cities":[],"name":"Ethiopia"},"id":"ET"},{"attributes":{"phone_code":358,"cities":[],"name":"Finland"},"id":"FI"},{"attributes":{"phone_code":679,"cities":[],"name":"Fiji"},"id":"FJ"},{"attributes":{"phone_code":0,"cities":[],"name":"Falkland Islands"},"id":"FK"},{"attributes":{"phone_code":0,"cities":[],"name":"Micronesia"},"id":"FM"},{"attributes":{"phone_code":0,"cities":[],"name":"Faroe Islands"},"id":"FO"},{"attributes":{"phone_code":33,"cities":[],"name":"France"},"id":"FR"},{"attributes":{"phone_code":241,"cities":[],"name":"Gabon"},"id":"GA"},{"attributes":{"phone_code":44,"cities":[],"name":"United Kingdom"},"id":"GB"},{"attributes":{"phone_code":1473,"cities":[],"name":"Grenada"},"id":"GD"},{"attributes":{"phone_code":995,"cities":[],"name":"Georgia"},"id":"GE"},{"attributes":{"phone_code":594,"cities":[],"name":"French Guiana"},"id":"GF"},{"attributes":{"phone_code":0,"cities":[],"name":"Guernsey"},"id":"GG"},{"attributes":{"phone_code":233,"cities":[],"name":"Ghana"},"id":"GH"},{"attributes":{"phone_code":350,"cities":[],"name":"Gibraltar"},"id":"GI"},{"attributes":{"phone_code":299,"cities":[],"name":"Greenland"},"id":"GL"},{"attributes":{"phone_code":220,"cities":[],"name":"Gambia"},"id":"GM"},{"attributes":{"phone_code":224,"cities":[],"name":"Guinea"},"id":"GN"},{"attributes":{"phone_code":590,"cities":[],"name":"Guadeloupe"},"id":"GP"},{"attributes":{"phone_code":240,"cities":[],"name":"Equatorial Guinea"},"id":"GQ"},{"attributes":{"phone_code":30,"cities":[],"name":"Greece"},"id":"GR"},{"attributes":{"phone_code":502,"cities":[],"name":"Guatemala"},"id":"GT"},{"attributes":{"phone_code":1671,"cities":[],"name":"Guam"},"id":"GU"},{"attributes":{"phone_code":245,"cities":[],"name":"Guinea-Bissau"},"id":"GW"},{"attributes":{"phone_code":592,"cities":[],"name":"Guyana"},"id":"GY"},{"attributes":{"phone_code":852,"cities":[],"name":"Hong Kong"},"id":"HK"},{"attributes":{"phone_code":504,"cities":[],"name":"Honduras"},"id":"HN"},{"attributes":{"phone_code":385,"cities":[],"name":"Croatia"},"id":"HR"},{"attributes":{"phone_code":509,"cities":[],"name":"Haiti"},"id":"HT"},{"attributes":{"phone_code":36,"cities":[],"name":"Hungary"},"id":"HU"},{"id":"ID","attributes":{"name":"Indonesia","phone_code":62,"cities":[{"id":"62","name":"Kambuaya","code":"","latitude":"-1.3169","longitude":"132.2857","airports":[{"id":"KBX","name":"Kambuaya","aliases":[""]}]},{"id":"92","name":"Long Apung","code":"","latitude":"1.704486","longitude":"114.970297","airports":[]},{"id":"194","name":"Tikong","code":"","latitude":"-1.642629981","longitude":"124.5589981","airports":[]},{"id":"80","name":"Kotabangun","code":"","latitude":"-0.2666699886","longitude":"116.5833359","airports":[]},{"id":"94","name":"Lunyuk","code":"","latitude":"-8.9889","longitude":"117.2158","airports":[{"id":"LYK","name":"Lunyuk","aliases":[""]}]},{"id":"27","name":"Bengkalis","code":"","latitude":"1.370000005","longitude":"102.1399994","airports":[]},{"id":"93","name":"Long Bawan","code":"","latitude":"3.9028","longitude":"115.6921","airports":[]},{"id":"143","name":"Raha","code":"","latitude":"-4.860070229","longitude":"122.7200012","airports":[{"id":"RAQ","name":"Sugimanuru","aliases":["Muna"]}]},{"id":"8386","name":"Palopo","code":"","latitude":"","longitude":"","airports":[{"id":"LLO","name":"Lagaligo","aliases":[""]}]},{"id":"150","name":"Sabu","code":"","latitude":"-10.4924","longitude":"121.8482","airports":[]},{"id":"195","name":"Timika","code":"","latitude":"-4.528279781","longitude":"136.8869934","airports":[{"id":"TIM","name":"Mozes Kilangin","aliases":[""]}]},{"id":"11","name":"Teminabuan","code":"","latitude":"-1.44472003","longitude":"132.0209961","airports":[{"id":"TXM","name":"Teminabuan","aliases":[""]}]},{"id":"158","name":"Sarmi","code":"","latitude":"-1.86954999","longitude":"138.75","airports":[{"id":"ZRM","name":"Mararena","aliases":["Sarmi"]}]},{"id":"1","name":"Alor","code":"","latitude":"-8.132340431","longitude":"124.5970001","airports":[{"id":"ARD","name":"Mali","aliases":["Alor"]}]},{"id":"96","name":"Maikoor","code":"","latitude":"-6.06619978","longitude":"134.2740021","airports":[]},{"id":"34","name":"Bontang","code":"","latitude":"0.1196909994","longitude":"117.4749985","airports":[]},{"id":"9","name":"Astraksetra","code":"","latitude":"-4.611139774","longitude":"105.2320023","airports":[]},{"id":"32","name":"Boalang","code":"","latitude":"-0.9728959799","longitude":"122.1449966","airports":[{"id":"BJG","name":"Bolaang","aliases":[""]}]},{"id":"91","name":"Lhok Sukon","code":"","latitude":"5.069509983","longitude":"97.25920105","airports":[]},{"id":"8382","name":"Senipah","code":"","latitude":"","longitude":"","airports":[]},{"id":"8390","name":"Selayar","code":"","latitude":"","longitude":"","airports":[{"id":"YKR","name":"H. Aroeppala","aliases":[""]}]},{"id":"147","name":"Rokot","code":"","latitude":"-0.9499999881","longitude":"100.75","airports":[]},{"id":"156","name":"Sango","code":"","latitude":"0.8314139843","longitude":"127.3809967","airports":[{"id":"TTE","name":"Sultan Babullah","aliases":["Ternate"]}]},{"id":"197","name":"Tjepu","code":"","latitude":"-7.194841667","longitude":"111.5481667","airports":[]},{"id":"39","name":"Dabra","code":"","latitude":"-3.2705","longitude":"138.6132","airports":[]},{"id":"8","name":"Asmat","code":"","latitude":"-5.494","longitude":"138.083","airports":[]},{"id":"174","name":"Solo","code":"","latitude":"-7.516089916","longitude":"110.7570038","airports":[{"id":"SOC","name":"Adi Sumarmo","aliases":["surakarta"]}]},{"id":"2","name":"Amahai","code":"","latitude":"-3.34800005","longitude":"128.9259949","airports":[]},{"id":"179","name":"Swach","code":"","latitude":"-3.235","longitude":"140.994","airports":[]},{"id":"61","name":"Kaimana","code":"","latitude":"-3.644520044","longitude":"133.6959991","airports":[]},{"id":"172","name":"Sorong","code":"","latitude":"-0.894","longitude":"131.287","airports":[{"id":"SOQ","name":"Dominique Edward Osok","aliases":[""]}]},{"id":"18","name":"Banda","code":"","latitude":"-4.5214","longitude":"129.9054","airports":[{"id":"NDA","name":"Bandanaira","aliases":[""]}]},{"id":"19","name":"Bandar Lampung","code":"","latitude":"-5.240556","longitude":"105.175556","airports":[{"id":"TKG","name":"Radin Inten II","aliases":[""]}]},{"id":"184","name":"Tanjung Balai","code":"","latitude":"1.0527","longitude":"103.3931","airports":[{"id":"TJB","name":"Raja Haji Abdullah","aliases":["Sei Bati"]}]},{"id":"100","name":"Mamuju","code":"","latitude":"-2.583333","longitude":"119.033333","airports":[{"id":"MJU","name":"Tampa Padang","aliases":[""]}]},{"id":"7","name":"Arso","code":"","latitude":"-2.93333292","longitude":"140.7833405","airports":[]},{"id":"117","name":"Muko Muko","code":"","latitude":"-2.541860104","longitude":"101.0879974","airports":[]},{"id":"180","name":"Tahuna","code":"","latitude":"3.683209896","longitude":"125.5279999","airports":[{"id":"NAH","name":"Naha","aliases":["Judha Tindas"]}]},{"id":"90","name":"Lhok Seumawe","code":"","latitude":"5.226679802","longitude":"96.95030212","airports":[{"id":"LSW","name":"Malikus Saleh","aliases":["Lhokseumawe","Malikussaleh"]}]},{"id":"48","name":"Gag","code":"","latitude":"-0.4005559981","longitude":"129.8950043","airports":[]},{"id":"76","name":"Kiman","code":"","latitude":"-3.666670084","longitude":"136.1666718","airports":[]},{"id":"176","name":"Sumenep","code":"","latitude":"-7.0242","longitude":"113.89023","airports":[{"id":"SUP","name":"Trunojoyo","aliases":[""]}]},{"id":"190","name":"Tapak Tuan","code":"","latitude":"3.1707","longitude":"97.2869","airports":[{"id":"TPK","name":"Teuku Cut Ali","aliases":["Tapak Tuan","Tapaktuan"]}]},{"id":"146","name":"Rengat","code":"","latitude":"-0.3528079987","longitude":"102.3349991","airports":[]},{"id":"162","name":"Semarang","code":"","latitude":"-6.97273","longitude":"110.375","airports":[{"id":"SRG","name":"Achmad Yani","aliases":[""]}]},{"id":"3","name":"Ambon","code":"","latitude":"-3.710259914","longitude":"128.0890045","airports":[{"id":"AMQ","name":"Pattimura","aliases":[""]}]},{"id":"63","name":"Kamur","code":"","latitude":"-6.1851","longitude":"138.6372","airports":[]},{"id":"200","name":"Ubrub","code":"","latitude":"-3.67565","longitude":"140.8838","airports":[]},{"id":"21","name":"Banjarmasin","code":"","latitude":"-3.442359924","longitude":"114.7630005","airports":[{"id":"BDJ","name":"Syamsudin Noor","aliases":[""]}]},{"id":"69","name":"Keisah","code":"","latitude":"-7.666669846","longitude":"140.5","airports":[]},{"id":"209","name":"Yogyakarta","code":"","latitude":"-7.788179874","longitude":"","airports":[{"id":"JOG","name":"Adisutjipto","aliases":[""]}]},{"id":"36","name":"Buol","code":"","latitude":"1.1027","longitude":"121.4141","airports":[{"id":"UOL","name":"Pogogul","aliases":["Buol"]}]},{"id":"78","name":"Kolaka","code":"","latitude":"-4.181089878","longitude":"121.6179962","airports":[{"id":"PUM","name":"Sangia Nibandera","aliases":["Pomala"]}]},{"id":"8389","name":"Wakatobi","code":"","latitude":"","longitude":"","airports":[{"id":"WNI","name":"Matahora","aliases":[""]}]},{"id":"4","name":"Amgotro","code":"","latitude":"-3.6333","longitude":"140.958","airports":[]},{"id":"151","name":"Samarinda","code":"","latitude":"-0.4845309854","longitude":"117.1569977","airports":[{"id":"SRI","name":"Temindung","aliases":[""]}]},{"id":"24","name":"Batom","code":"","latitude":"-4.166669846","longitude":"140.8500061","airports":[]},{"id":"13","name":"Babo","code":"","latitude":"-2.532239914","longitude":"133.4389954","airports":[]},{"id":"149","name":"Sabang","code":"","latitude":"5.874129772","longitude":"95.33969879","airports":[{"id":"SBG","name":"Maimun Saleh","aliases":["Sabang"]}]},{"id":"124","name":"Nunukan","code":"","latitude":"4.133333333","longitude":"117.6666667","airports":[]},{"id":"208","name":"Yahukimo","code":"","latitude":"-4.8557","longitude":"139.482","airports":[{"id":"DEX","name":"Bandara Udara Nop Goliat Dekai","aliases":[""]}]},{"id":"87","name":"Laut","code":"","latitude":"-3.294719934","longitude":"116.1650009","airports":[{"id":"KBU","name":"Gusti Syamsir Alam","aliases":[""]}]},{"id":"108","name":"Lombok","code":"","latitude":"-8.757322","longitude":"116.276675","airports":[{"id":"LOP","name":"Lombok","aliases":[""]}]},{"id":"84","name":"Labuha","code":"","latitude":"-0.6352589726","longitude":"127.5019989","airports":[{"id":"LAH","name":"Oesman Sadik","aliases":[""]}]},{"id":"119","name":"Muting","code":"","latitude":"-7.3147","longitude":"140.5668","airports":[]},{"id":"115","name":"Mindiptana","code":"","latitude":"-5.75","longitude":"140.3670044","airports":[]},{"id":"127","name":"Oksibil","code":"","latitude":"-4.9071","longitude":"140.6277","airports":[{"id":"OKL","name":"Oksibil","aliases":["Gunung Bintang"]}]},{"id":"177","name":"Kerinci","code":"","latitude":"-2.093","longitude":"101.4683","airports":[{"id":"KRC","name":"Depati Parbo","aliases":["Kerinci","Sungai Penuh"]}]},{"id":"183","name":"Tanah Merah","code":"","latitude":"-6.099219799","longitude":"140.2980042","airports":[]},{"id":"114","name":"Merdei","code":"","latitude":"-1.583330035","longitude":"133.3329926","airports":[]},{"id":"167","name":"Siborong-borong","code":"","latitude":"2.25973","longitude":"98.991898","airports":[{"id":"DTB","name":"Silangit","aliases":[""]}]},{"id":"71","name":"Keluang","code":"","latitude":"-2.623529911","longitude":"103.9550018","airports":[]},{"id":"75","name":"Padang","code":"","latitude":"-0.7869169712","longitude":"100.2809982","airports":[{"id":"PDG","name":"Minangkabau","aliases":[""]}]},{"id":"171","name":"Soroako","code":"","latitude":"-2.531199932","longitude":"121.3580017","airports":[]},{"id":"67","name":"Karubaga","code":"","latitude":"-3.684","longitude":"138.479","airports":[]},{"id":"191","name":"Tarakan Island","code":"","latitude":"3.326667","longitude":"117.569444","airports":[{"id":"TRK","name":"Juwata","aliases":[""]}]},{"id":"175","name":"Sumbawa","code":"","latitude":"-8.489040375","longitude":"117.4120026","airports":[{"id":"SWQ","name":"Sultan Muhammad Kaharuddin III","aliases":[""]}]},{"id":"55","name":"Ilu","code":"","latitude":"-3.7051","longitude":"138.2002","airports":[]},{"id":"110","name":"Maumere","code":"","latitude":"-8.640649796","longitude":"122.2369995","airports":[{"id":"MOF","name":"Frans Seda","aliases":["Wai Oti"]}]},{"id":"23","name":"Batam","code":"","latitude":"1.121029973","longitude":"104.1190033","airports":[{"id":"BTH","name":"Hang Nadim","aliases":[""]}]},{"id":"17","name":"Banda Aceh","code":"","latitude":"5.522872024","longitude":"95.42063713","airports":[{"id":"BTJ","name":"Sultan Iskandar Muda","aliases":[""]}]},{"id":"57","name":"Jakarta","code":"JKTA","latitude":"-5.644444","longitude":"106.5625","airports":[{"id":"HLP","name":"Halim Perdanakusuma","aliases":[""]},{"id":"CGK","name":"Soekarno-Hatta","aliases":[""]}]},{"id":"185","name":"Tanjung Pandan","code":"","latitude":"-2.74571991","longitude":"107.7549973","airports":[{"id":"TJQ","name":"H.A.S. Hanandjoeddin","aliases":["Buluh Tumbang"]}]},{"id":"8381","name":"Pagar Alam","code":"","latitude":"","longitude":"","airports":[{"id":"PXA","name":"Atung Bungsu","aliases":["Pagar Alam"]}]},{"id":"164","name":"Senggo","code":"","latitude":"-5.6908","longitude":"139.3502","airports":[]},{"id":"14","name":"Bade","code":"","latitude":"-7.714630127","longitude":"139.5749969","airports":[]},{"id":"12","name":"Ayawasi","code":"","latitude":"-1.1593","longitude":"132.4633","airports":[]},{"id":"161","name":"Sawan","code":"","latitude":"-8.132780075","longitude":"115.1729965","airports":[]},{"id":"60","name":"Jember","code":"","latitude":"-8.238056","longitude":"113.694439","airports":[{"id":"JBB","name":"Notohadinegoro","aliases":[""]}]},{"id":"29","name":"Biak","code":"","latitude":"-1.190019965","longitude":"136.1080017","airports":[{"id":"BIK","name":"Frans Kaisiepo","aliases":["Biak"]}]},{"id":"38","name":"Cirebon","code":"","latitude":"-6.756140232","longitude":"108.5400009","airports":[]},{"id":"33","name":"Bokondini","code":"","latitude":"-3.6822","longitude":"138.6755","airports":[]},{"id":"43","name":"Dumai","code":"","latitude":"1.60919","longitude":"101.433998","airports":[{"id":"DUM","name":"Pinang Kampai","aliases":[""]}]},{"id":"111","name":"Medan","code":"","latitude":"3.642222","longitude":"98.885278","airports":[{"id":"KNO","name":"Kualanamu","aliases":["Deli Serdang"]}]},{"id":"22","name":"Banyuwangi","code":"","latitude":"-8.31015","longitude":"114.3401","airports":[{"id":"BWX","name":"Blimbingsari","aliases":[""]}]},{"id":"139","name":"Pontianak","code":"","latitude":"-0.150711","longitude":"109.4039993","airports":[{"id":"PNK","name":"Supadio","aliases":[""]}]},{"id":"155","name":"Sangir","code":"","latitude":"-8.366669655","longitude":"118.3333588","airports":[]},{"id":"77","name":"Kokonau","code":"","latitude":"-4.71075","longitude":"136.43515","airports":[{"id":"KOX","name":"Kokonao","aliases":[""]}]},{"id":"59","name":"Jayapura","code":"","latitude":"-2.576950073","longitude":"140.5160065","airports":[{"id":"DJJ","name":"Sentani","aliases":[""]}]},{"id":"181","name":"Talang Gudang","code":"","latitude":"-3.286070108","longitude":"103.8799973","airports":[]},{"id":"53","name":"Gunung Sitoli","code":"","latitude":"1.166380048","longitude":"97.70469666","airports":[{"id":"GNS","name":"Binaka","aliases":["Gunung Sitoli"]}]},{"id":"113","name":"Merauke","code":"","latitude":"-8.520290375","longitude":"140.4179993","airports":[{"id":"MKQ","name":"Mopah","aliases":[""]}]},{"id":"189","name":"Tanta","code":"","latitude":"-2.216559887","longitude":"115.435997","airports":[{"id":"TJG","name":"Warukin","aliases":[""]}]},{"id":"187","name":"Tanjung Redep","code":"","latitude":"2.155499935","longitude":"117.4319992","airports":[{"id":"BEJ","name":"Kalimarau","aliases":["Berau"]}]},{"id":"85","name":"Langgur","code":"","latitude":"-5.66162014","longitude":"132.7310028","airports":[]},{"id":"8385","name":"Ampana","code":"","latitude":"","longitude":"","airports":[{"id":"VPM","name":"Tanjung Api","aliases":[""]}]},{"id":"136","name":"Pasirkuning","code":"","latitude":"-0.4791890085","longitude":"104.5790024","airports":[]},{"id":"165","name":"Seram","code":"","latitude":"-2.8114","longitude":"129.484","airports":[]},{"id":"134","name":"Parapat","code":"","latitude":"2.666666985","longitude":"98.93333435","airports":[]},{"id":"44","name":"Elelim","code":"","latitude":"-3.7826","longitude":"139.3861","airports":[]},{"id":"8387","name":"Raja Ampat","code":"","latitude":"","longitude":"","airports":[{"id":"RJM","name":"Marinda Raja Ampat","aliases":[""]}]},{"id":"137","name":"Pekanbaru","code":"","latitude":"0.4607860148","longitude":"101.4449997","airports":[{"id":"PKU","name":"Sultan Syarif Kasim II","aliases":[""]}]},{"id":"42","name":"Dobo","code":"","latitude":"-5.772220135","longitude":"134.2120056","airports":[]},{"id":"201","name":"Ujung Pandang","code":"","latitude":"-5.061629772","longitude":"119.5540009","airports":[{"id":"UPG","name":"Sultan Hasanuddin","aliases":["Makasar"]}]},{"id":"95","name":"Luwuk","code":"","latitude":"-1.038920045","longitude":"122.7720032","airports":[{"id":"LUW","name":"Syukuran Aminuddin Amir","aliases":["Bubung"]}]},{"id":"28","name":"Bengkulu","code":"","latitude":"-3.8637","longitude":"102.338997","airports":[{"id":"BKS","name":"Fatmawati Soekarno","aliases":[""]}]},{"id":"170","name":"Sipora","code":"","latitude":"-2.099119902","longitude":"99.70069885","airports":[]},{"id":"192","name":"Tasikmalaya","code":"","latitude":"-7.346600056","longitude":"108.2460022","airports":[{"id":"TSY","name":"Wiriadinata Airport","aliases":["Tasikmalaya"]}]},{"id":"154","name":"Sanggata","code":"","latitude":"0.3847","longitude":"117.543","airports":[{"id":"SGQ","name":"Sangkimah","aliases":["Tanjung Bara"]}]},{"id":"105","name":"Masalembo","code":"","latitude":"-5.583330154","longitude":"114.4329987","airports":[]},{"id":"153","name":"Sanana","code":"","latitude":"-2.080509901","longitude":"125.9670029","airports":[]},{"id":"123","name":"Nanga Pinoh","code":"","latitude":"-0.3488689959","longitude":"111.7480011","airports":[]},{"id":"182","name":"Tanah Grogot","code":"","latitude":"-1.910130024","longitude":"116.2020035","airports":[]},{"id":"106","name":"Masamba","code":"","latitude":"-2.558039904","longitude":"120.3239975","airports":[{"id":"MXB","name":"Andi Jemma","aliases":[""]}]},{"id":"58","name":"Jambi","code":"","latitude":"-1.638020039","longitude":"103.6439972","airports":[{"id":"DJB","name":"Sultan Thaha Syaifuddin","aliases":["Sultan Thaha","Thaha"]}]},{"id":"120","name":"Nabire","code":"","latitude":"-3.368180037","longitude":"135.4960022","airports":[{"id":"NBX","name":"Nabire","aliases":[""]}]},{"id":"129","name":"Palangkaraya","code":"","latitude":"-2.225130081","longitude":"113.9430008","airports":[{"id":"PKY","name":"Tjilik Riwut","aliases":[""]}]},{"id":"49","name":"Galela","code":"","latitude":"1.83833003","longitude":"127.7860031","airports":[{"id":"GLX","name":"Gamarmalamo","aliases":["Gamar Malamo"]}]},{"id":"6","name":"Apalapsili","code":"","latitude":"-3.8832","longitude":"139.3108","airports":[]},{"id":"54","name":"Illaga","code":"","latitude":"-3.97648","longitude":"137.6225","airports":[]},{"id":"65","name":"Karakelong Island","code":"","latitude":"4.006939888","longitude":"126.6729965","airports":[{"id":"MNA","name":"Melonguane","aliases":["Melangguane","Talaud"]}]},{"id":"51","name":"Gorontalo","code":"","latitude":"0.6371189952","longitude":"122.8499985","airports":[{"id":"GTO","name":"Jalaluddin","aliases":["Gorontalo","Tolotio"]}]},{"id":"102","name":"Mangole","code":"","latitude":"-1.87579","longitude":"125.8300018","airports":[]},{"id":"130","name":"Palembang","code":"","latitude":"-2.898250103","longitude":"104.6999969","airports":[{"id":"PLM","name":"Sultan Mahmud Badaruddin II","aliases":[""]}]},{"id":"8392","name":"Muara Teweh","code":"","latitude":"","longitude":"","airports":[]},{"id":"16","name":"Banaina","code":"","latitude":"2.723050117","longitude":"117.1259995","airports":[]},{"id":"157","name":"Santan","code":"","latitude":"-0.0929730013","longitude":"117.4530029","airports":[]},{"id":"46","name":"Ende","code":"","latitude":"-8.849289894","longitude":"121.6610031","airports":[{"id":"ENE","name":"H. Hasan Aroeboesman","aliases":[""]}]},{"id":"142","name":"Putussibau","code":"","latitude":"0.8355780244","longitude":"112.9369965","airports":[{"id":"PSU","name":"Pangsuma","aliases":["Putussibau"]}]},{"id":"104","name":"Manokwari","code":"","latitude":"-0.8918330073","longitude":"134.048996","airports":[{"id":"MKW","name":"Rendani","aliases":[""]}]},{"id":"193","name":"Tiakur","code":"","latitude":"-8.13911","longitude":"127.9075","airports":[]},{"id":"20","name":"Bandung","code":"","latitude":"-6.900629997","longitude":"107.5759964","airports":[{"id":"BDO","name":"Husein Sastranegara","aliases":[""]}]},{"id":"98","name":"Malang","code":"","latitude":"-7.926559925","longitude":"112.7149963","airports":[{"id":"MLG","name":"Abdul Rachman Saleh","aliases":[""]}]},{"id":"79","name":"Kornasoren-Noemfoor","code":"","latitude":"-0.9363250136","longitude":"134.871994","airports":[]},{"id":"30","name":"Bima","code":"","latitude":"-8.539649963","longitude":"118.6869965","airports":[{"id":"BMU","name":"Sultan Muhammad Salahuddin","aliases":[""]}]},{"id":"199","name":"Tumbang Samba","code":"","latitude":"-1.4694","longitude":"113.0833","airports":[{"id":"TBM","name":"Tumbang Samba","aliases":[""]}]},{"id":"118","name":"Mulia","code":"","latitude":"-3.7018","longitude":"137.957","airports":[]},{"id":"89","name":"Lewoleba","code":"","latitude":"-8.3629","longitude":"123.438","airports":[{"id":"LWE","name":"Wonopito","aliases":[""]}]},{"id":"186","name":"Tanjung Pinang","code":"","latitude":"0.9226830006","longitude":"104.5319977","airports":[{"id":"TNJ","name":"Raja Haji Fisabilillah","aliases":["Bintan","Kidjang","Kijang","Tanjung Pinang"]}]},{"id":"173","name":"Sugapa","code":"","latitude":"-3.739559889","longitude":"137.0319977","airports":[]},{"id":"138","name":"Nagan Raya","code":"","latitude":"4.25","longitude":"96.21700287","airports":[{"id":"MEQ","name":"Cut Nyak Dhien Nagan Raya","aliases":["Meulaboh","Peureumeue","Seunagan"]}]},{"id":"45","name":"Enarotali","code":"","latitude":"-3.925899982","longitude":"136.3769989","airports":[]},{"id":"116","name":"Moanamani","code":"","latitude":"-3.983402014","longitude":"136.0832977","airports":[]},{"id":"126","name":"Okaba","code":"","latitude":"-8.0946","longitude":"139.7233","airports":[]},{"id":"52","name":"Gotalalamo","code":"","latitude":"2.04598999","longitude":"128.3249969","airports":[{"id":"OTI","name":"Pitu","aliases":[""]}]},{"id":"72","name":"Kendari","code":"","latitude":"-4.081610203","longitude":"122.4179993","airports":[{"id":"KDI","name":"Haluoleo","aliases":[""]}]},{"id":"107","name":"Matak","code":"","latitude":"3.348119974","longitude":"106.2580032","airports":[{"id":"MWK","name":"Matak","aliases":["Anambas"]}]},{"id":"168","name":"Sinak","code":"","latitude":"-3.822","longitude":"137.8406","airports":[]},{"id":"205","name":"Waingapu","code":"","latitude":"-9.669219971","longitude":"120.302002","airports":[{"id":"WGP","name":"Waingapu","aliases":[""]}]},{"id":"135","name":"Pasir Pengarayan","code":"","latitude":"0.8454310298","longitude":"100.3700027","airports":[]},{"id":"109","name":"Mataram","code":"","latitude":"-8.560709953","longitude":"116.0950012","airports":[]},{"id":"74","name":"Ketapang","code":"","latitude":"-1.816640019","longitude":"109.9629974","airports":[{"id":"KTG","name":"Rahadi Osman","aliases":[""]}]},{"id":"81","name":"Balikpapan","code":"","latitude":"-1.268270016","longitude":"116.8939972","airports":[{"id":"BPN","name":"Sultan Aji Muhamad Sulaiman","aliases":["Sepinggan"]}]},{"id":"8395","name":"Milanau","code":"","latitude":"","longitude":"","airports":[]},{"id":"141","name":"Purwokerto","code":"","latitude":"-7.461669922","longitude":"109.4169998","airports":[]},{"id":"70","name":"Kelila","code":"","latitude":"-3.75","longitude":"138.6666718","airports":[]},{"id":"133","name":"Pangkalanbun","code":"","latitude":"-2.705199957","longitude":"111.6729965","airports":[{"id":"PKN","name":"Iskandar","aliases":[""]}]},{"id":"50","name":"Gebe","code":"","latitude":"-0.07888899744","longitude":"129.4579926","airports":[]},{"id":"97","name":"Makale","code":"","latitude":"-3.044739962","longitude":"119.8219986","airports":[{"id":"TTR","name":"Pongtiku","aliases":[""]}]},{"id":"8384","name":"Takengon","code":"","latitude":"","longitude":"","airports":[{"id":"TXE","name":"Takengon Rembele","aliases":["Rembele","Simpang Tiga Redelong"]}]},{"id":"8391","name":"Buli","code":"","latitude":"","longitude":"","airports":[{"id":"WUB","name":"Buli","aliases":[""]}]},{"id":"166","name":"Serui","code":"","latitude":"-1.875579953","longitude":"136.2409973","airports":[]},{"id":"188","name":"Tanjung Selor","code":"","latitude":"2.835833333","longitude":"117.3736111","airports":[{"id":"TJS","name":"Tanjung Harapan","aliases":[""]}]},{"id":"101","name":"Manado","code":"","latitude":"1.54926002","longitude":"124.9260025","airports":[{"id":"MDC","name":"Sam Ratulangi","aliases":[""]}]},{"id":"5","name":"Anggi","code":"","latitude":"-1.3858","longitude":"133.8737","airports":[]},{"id":"196","name":"Tiom","code":"","latitude":"-3.9256","longitude":"138.4555","airports":[]},{"id":"125","name":"Obano","code":"","latitude":"-3.9106","longitude":"136.2306","airports":[]},{"id":"88","name":"Lereh","code":"","latitude":"-3.0795","longitude":"139.952","airports":[]},{"id":"122","name":"Namrole","code":"","latitude":"-3.8548","longitude":"126.7012","airports":[]},{"id":"198","name":"Toli Toli","code":"","latitude":"1.123428","longitude":"120.793658","airports":[{"id":"TLI","name":"Sultan Bantilan","aliases":[""]}]},{"id":"121","name":"Namlea","code":"","latitude":"-3.235569954","longitude":"127.0999985","airports":[]},{"id":"86","name":"Larantuka","code":"","latitude":"-8.274424","longitude":"123.002","airports":[{"id":"LKA","name":"Gewayenta","aliases":[""]}]},{"id":"31","name":"Bintuni","code":"","latitude":"-2.1033","longitude":"133.5164","airports":[]},{"id":"47","name":"Fakfak","code":"","latitude":"-2.920190096","longitude":"132.2669983","airports":[{"id":"FKQ","name":"Fak Fak","aliases":[""]}]},{"id":"148","name":"Rote","code":"","latitude":"-10.48429966","longitude":"123.3740005","airports":[{"id":"RTI","name":"D. C. Saundale","aliases":["Roti"]}]},{"id":"82","name":"Kupang","code":"","latitude":"-10.17160034","longitude":"123.6709976","airports":[{"id":"KOE","name":"El Tari","aliases":[""]}]},{"id":"160","name":"Saumlaki","code":"","latitude":"-7.988609791","longitude":"131.3059998","airports":[{"id":"SXK","name":"Mathilda Batlayeri","aliases":["Saumlaki"]}]},{"id":"73","name":"Kepi","code":"","latitude":"-6.5418","longitude":"139.3318","airports":[]},{"id":"203","name":"Waha","code":"","latitude":"-5.764570236","longitude":"123.9169998","airports":[]},{"id":"15","name":"Bajawa","code":"","latitude":"-8.70743498","longitude":"121.0574269","airports":[{"id":"BJW","name":"Soa","aliases":["Bajawa"]}]},{"id":"35","name":"Bunju Island","code":"","latitude":"3.455719948","longitude":"117.8669968","airports":[]},{"id":"159","name":"Satar Tacik","code":"","latitude":"-8.597009659","longitude":"120.4769974","airports":[{"id":"RTG","name":"Frans Sales Lega","aliases":[""]}]},{"id":"25","name":"Batu Licin","code":"","latitude":"-3.412410021","longitude":"115.9950027","airports":[{"id":"BTW","name":"Batulicin","aliases":[""]}]},{"id":"40","name":"Datadawai","code":"","latitude":"0.8106","longitude":"114.5306","airports":[]},{"id":"152","name":"Sampit","code":"","latitude":"-2.499190092","longitude":"112.9749985","airports":[{"id":"SMQ","name":"H. Asan","aliases":[""]}]},{"id":"64","name":"Kao","code":"","latitude":"1.185279965","longitude":"127.8960037","airports":[{"id":"KAZ","name":"Kuabang Kao","aliases":["Tobelo"]}]},{"id":"163","name":"Senggeh","code":"","latitude":"-3.45","longitude":"140.779","airports":[]},{"id":"8388","name":"Lubuk Linggau","code":"","latitude":"","longitude":"","airports":[{"id":"LLG","name":"Silampari","aliases":[""]}]},{"id":"37","name":"Cilacap","code":"","latitude":"-7.645060062","longitude":"109.0339966","airports":[]},{"id":"204","name":"Wangiapu","code":"","latitude":"-9.409720421","longitude":"119.2440033","airports":[{"id":"TMC","name":"Umbu Mehang Kunda","aliases":["Mau Hau","Tambolaka","Waikabubak"]}]},{"id":"26","name":"Bau Bau","code":"","latitude":"-5.486879826","longitude":"122.5690002","airports":[{"id":"BUW","name":"Baubau","aliases":[""]}]},{"id":"10","name":"Atambua","code":"","latitude":"-9.073049545","longitude":"124.9049988","airports":[{"id":"ABU","name":"AA Bere Tallo","aliases":["Haliwen"]}]},{"id":"140","name":"Poso","code":"","latitude":"-1.416749954","longitude":"120.6579971","airports":[{"id":"PSJ","name":"Kasiguncu","aliases":[""]}]},{"id":"131","name":"Palu","code":"","latitude":"-0.9185420275","longitude":"119.9100037","airports":[{"id":"PLW","name":"Mutiara","aliases":[""]}]},{"id":"145","name":"Ransiki","code":"","latitude":"-1.496771","longitude":"134.175","airports":[]},{"id":"206","name":"Wamena","code":"","latitude":"-4.102509975","longitude":"138.9570007","airports":[{"id":"WMX","name":"Wamena","aliases":[""]}]},{"id":"178","name":"Surabaya","code":"","latitude":"-7.379829884","longitude":"112.7870026","airports":[{"id":"SUB","name":"Juanda","aliases":[""]}]},{"id":"202","name":"Wagethe","code":"","latitude":"-4.044229984","longitude":"136.2779999","airports":[]},{"id":"144","name":"Ranai","code":"","latitude":"3.908710003","longitude":"108.3880005","airports":[]},{"id":"103","name":"Mangungaya","code":"","latitude":"-2.733330011","longitude":"103.5670013","airports":[]},{"id":"68","name":"Kebar","code":"","latitude":"-0.6371009946","longitude":"133.128006","airports":[]},{"id":"8383","name":"Sibolga","code":"","latitude":"","longitude":"","airports":[{"id":"FLZ","name":"Dr. Ferdinand Lumban Tobing","aliases":[""]}]},{"id":"128","name":"Padang Sidempuan","code":"","latitude":"1.4001","longitude":"99.430496","airports":[{"id":"AEG","name":"Aek Godang","aliases":[""]}]},{"id":"66","name":"Karimunjawa","code":"","latitude":"-5.80091","longitude":"110.47838","airports":[]},{"id":"207","name":"Wasior","code":"","latitude":"-2.721","longitude":"134.5061","airports":[]},{"id":"132","name":"Pangkal Pinang","code":"","latitude":"-2.162199974","longitude":"106.1389999","airports":[{"id":"PGK","name":"Depati Amir","aliases":[""]}]},{"id":"169","name":"Sintang","code":"","latitude":"0.0636190027","longitude":"111.4729996","airports":[{"id":"SQG","name":"Susilo","aliases":[""]}]},{"id":"83","name":"Labuan Bajo","code":"","latitude":"-8.486660004","longitude":"119.8889999","airports":[{"id":"LBJ","name":"Komodo","aliases":[""]}]},{"id":"56","name":"Inanwatan","code":"","latitude":"-2.128099918","longitude":"132.1609955","airports":[]},{"id":"41","name":"Denpasar","code":"","latitude":"-8.748169899","longitude":"115.1669998","airports":[{"id":"DPS","name":"Ngurah Rai","aliases":["bali"]}]}]}},{"attributes":{"phone_code":353,"cities":[],"name":"Ireland"},"id":"IE"},{"attributes":{"phone_code":972,"cities":[],"name":"Israel"},"id":"IL"},{"attributes":{"phone_code":0,"cities":[],"name":"Isle of Man"},"id":"IM"},{"attributes":{"phone_code":91,"cities":[],"name":"India"},"id":"IN"},{"attributes":{"phone_code":0,"cities":[],"name":"British Indian Ocean Territory"},"id":"IO"},{"attributes":{"phone_code":964,"cities":[],"name":"Iraq"},"id":"IQ"},{"attributes":{"phone_code":98,"cities":[],"name":"Iran"},"id":"IR"},{"attributes":{"phone_code":354,"cities":[],"name":"Iceland"},"id":"IS"},{"attributes":{"phone_code":39,"cities":[],"name":"Italy"},"id":"IT"},{"attributes":{"phone_code":0,"cities":[],"name":"Jersey"},"id":"JE"},{"attributes":{"phone_code":1876,"cities":[],"name":"Jamaica"},"id":"JM"},{"attributes":{"phone_code":962,"cities":[],"name":"Jordan"},"id":"JO"},{"attributes":{"phone_code":81,"cities":[],"name":"Japan"},"id":"JP"},{"attributes":{"phone_code":254,"cities":[],"name":"Kenya"},"id":"KE"},{"attributes":{"phone_code":996,"cities":[],"name":"Kyrgyzstan"},"id":"KG"},{"attributes":{"phone_code":855,"cities":[],"name":"Cambodia"},"id":"KH"},{"attributes":{"phone_code":686,"cities":[],"name":"Kiribati"},"id":"KI"},{"attributes":{"phone_code":269,"cities":[],"name":"Comoros"},"id":"KM"},{"attributes":{"phone_code":1869,"cities":[],"name":"Saint Kitts and Nevis"},"id":"KN"},{"attributes":{"phone_code":0,"cities":[],"name":"North Korea"},"id":"KP"},{"attributes":{"phone_code":0,"cities":[],"name":"South Korea"},"id":"KR"},{"attributes":{"phone_code":965,"cities":[],"name":"Kuwait"},"id":"KW"},{"attributes":{"phone_code":1345,"cities":[],"name":"Cayman Islands"},"id":"KY"},{"attributes":{"phone_code":7,"cities":[],"name":"Kazakhstan"},"id":"KZ"},{"attributes":{"phone_code":0,"cities":[],"name":"Laos"},"id":"LA"},{"attributes":{"phone_code":961,"cities":[],"name":"Lebanon"},"id":"LB"},{"attributes":{"phone_code":1758,"cities":[],"name":"Saint Lucia"},"id":"LC"},{"attributes":{"phone_code":423,"cities":[],"name":"Liechtenstein"},"id":"LI"},{"attributes":{"phone_code":94,"cities":[],"name":"Sri Lanka"},"id":"LK"},{"attributes":{"phone_code":231,"cities":[],"name":"Liberia"},"id":"LR"},{"attributes":{"phone_code":266,"cities":[],"name":"Lesotho"},"id":"LS"},{"attributes":{"phone_code":370,"cities":[],"name":"Lithuania"},"id":"LT"},{"attributes":{"phone_code":352,"cities":[],"name":"Luxembourg"},"id":"LU"},{"attributes":{"phone_code":371,"cities":[],"name":"Latvia"},"id":"LV"},{"attributes":{"phone_code":0,"cities":[],"name":"Libya"},"id":"LY"},{"attributes":{"phone_code":212,"cities":[],"name":"Morocco"},"id":"MA"},{"attributes":{"phone_code":377,"cities":[],"name":"Monaco"},"id":"MC"},{"attributes":{"phone_code":0,"cities":[],"name":"Moldova"},"id":"MD"},{"attributes":{"phone_code":0,"cities":[],"name":"Montenegro"},"id":"ME"},{"attributes":{"phone_code":0,"cities":[],"name":"Saint Martin"},"id":"MF"},{"attributes":{"phone_code":261,"cities":[],"name":"Madagascar"},"id":"MG"},{"attributes":{"phone_code":692,"cities":[],"name":"Marshall Islands"},"id":"MH"},{"attributes":{"phone_code":389,"cities":[],"name":"Macedonia"},"id":"MK"},{"attributes":{"phone_code":223,"cities":[],"name":"Mali"},"id":"ML"},{"attributes":{"phone_code":95,"cities":[],"name":"Myanmar"},"id":"MM"},{"attributes":{"phone_code":976,"cities":[],"name":"Mongolia"},"id":"MN"},{"attributes":{"phone_code":853,"cities":[],"name":"Macau"},"id":"MO"},{"attributes":{"phone_code":1670,"cities":[],"name":"Northern Mariana Islands"},"id":"MP"},{"attributes":{"phone_code":596,"cities":[],"name":"Martinique"},"id":"MQ"},{"attributes":{"phone_code":222,"cities":[],"name":"Mauritania"},"id":"MR"},{"attributes":{"phone_code":1664,"cities":[],"name":"Montserrat"},"id":"MS"},{"attributes":{"phone_code":356,"cities":[],"name":"Malta"},"id":"MT"},{"attributes":{"phone_code":230,"cities":[],"name":"Mauritius"},"id":"MU"},{"attributes":{"phone_code":960,"cities":[],"name":"Maldives"},"id":"MV"},{"attributes":{"phone_code":265,"cities":[],"name":"Malawi"},"id":"MW"},{"attributes":{"phone_code":52,"cities":[],"name":"Mexico"},"id":"MX"},{"attributes":{"phone_code":60,"cities":[],"name":"Malaysia"},"id":"MY"},{"attributes":{"phone_code":258,"cities":[],"name":"Mozambique"},"id":"MZ"},{"attributes":{"phone_code":264,"cities":[],"name":"Namibia"},"id":"NA"},{"attributes":{"phone_code":687,"cities":[],"name":"New Caledonia"},"id":"NC"},{"attributes":{"phone_code":227,"cities":[],"name":"Niger"},"id":"NE"},{"attributes":{"phone_code":2532,"cities":[],"name":"Norfolk Island"},"id":"NF"},{"attributes":{"phone_code":234,"cities":[],"name":"Nigeria"},"id":"NG"},{"attributes":{"phone_code":505,"cities":[],"name":"Nicaragua"},"id":"NI"},{"attributes":{"phone_code":31,"cities":[],"name":"Netherlands"},"id":"NL"},{"attributes":{"phone_code":47,"cities":[],"name":"Norway"},"id":"NO"},{"attributes":{"phone_code":977,"cities":[],"name":"Nepal"},"id":"NP"},{"attributes":{"phone_code":674,"cities":[],"name":"Nauru"},"id":"NR"},{"attributes":{"phone_code":683,"cities":[],"name":"Niue"},"id":"NU"},{"attributes":{"phone_code":64,"cities":[],"name":"New Zealand"},"id":"NZ"},{"attributes":{"phone_code":968,"cities":[],"name":"Oman"},"id":"OM"},{"attributes":{"phone_code":507,"cities":[],"name":"Panama"},"id":"PA"},{"attributes":{"phone_code":51,"cities":[],"name":"Peru"},"id":"PE"},{"attributes":{"phone_code":689,"cities":[],"name":"French Polynesia"},"id":"PF"},{"attributes":{"phone_code":675,"cities":[],"name":"Papua New Guinea"},"id":"PG"},{"attributes":{"phone_code":63,"cities":[],"name":"Philippines"},"id":"PH"},{"attributes":{"phone_code":92,"cities":[],"name":"Pakistan"},"id":"PK"},{"attributes":{"phone_code":48,"cities":[],"name":"Poland"},"id":"PL"},{"attributes":{"phone_code":0,"cities":[],"name":"Saint Pierre and Miquelon"},"id":"PM"},{"attributes":{"phone_code":64,"cities":[],"name":"Pitcairn"},"id":"PN"},{"attributes":{"phone_code":1,"cities":[],"name":"Puerto Rico"},"id":"PR"},{"attributes":{"phone_code":0,"cities":[],"name":"Palestine"},"id":"PS"},{"attributes":{"phone_code":351,"cities":[],"name":"Portugal"},"id":"PT"},{"attributes":{"phone_code":680,"cities":[],"name":"Palau"},"id":"PW"},{"attributes":{"phone_code":595,"cities":[],"name":"Paraguay"},"id":"PY"},{"attributes":{"phone_code":974,"cities":[],"name":"Qatar"},"id":"QA"},{"attributes":{"phone_code":262,"cities":[],"name":"Reunion"},"id":"RE"},{"attributes":{"phone_code":40,"cities":[],"name":"Romania"},"id":"RO"},{"attributes":{"phone_code":0,"cities":[],"name":"Serbia"},"id":"RS"},{"attributes":{"phone_code":0,"cities":[],"name":"Russia"},"id":"RU"},{"attributes":{"phone_code":250,"cities":[],"name":"Rwanda"},"id":"RW"},{"attributes":{"phone_code":966,"cities":[],"name":"Saudi Arabia"},"id":"SA"},{"attributes":{"phone_code":677,"cities":[],"name":"Solomon Islands"},"id":"SB"},{"attributes":{"phone_code":248,"cities":[],"name":"Seychelles"},"id":"SC"},{"attributes":{"phone_code":249,"cities":[],"name":"Sudan"},"id":"SD"},{"attributes":{"phone_code":46,"cities":[],"name":"Sweden"},"id":"SE"},{"attributes":{"phone_code":65,"cities":[],"name":"Singapore"},"id":"SG"},{"attributes":{"phone_code":0,"cities":[],"name":"Saint Helena"},"id":"SH"},{"attributes":{"phone_code":386,"cities":[],"name":"Slovenia"},"id":"SI"},{"attributes":{"phone_code":0,"cities":[],"name":"Svalbard and Jan Mayen"},"id":"SJ"},{"attributes":{"phone_code":421,"cities":[],"name":"Slovakia"},"id":"SK"},{"attributes":{"phone_code":232,"cities":[],"name":"Sierra Leone"},"id":"SL"},{"attributes":{"phone_code":378,"cities":[],"name":"San Marino"},"id":"SM"},{"attributes":{"phone_code":221,"cities":[],"name":"Senegal"},"id":"SN"},{"attributes":{"phone_code":252,"cities":[],"name":"Somalia"},"id":"SO"},{"attributes":{"phone_code":597,"cities":[],"name":"Suriname"},"id":"SR"},{"attributes":{"phone_code":0,"cities":[],"name":"South Sudan"},"id":"SS"},{"attributes":{"phone_code":239,"cities":[],"name":"Sao Tome and Principe"},"id":"ST"},{"attributes":{"phone_code":503,"cities":[],"name":"El Salvador"},"id":"SV"},{"attributes":{"phone_code":0,"cities":[],"name":"Sint Maarten"},"id":"SX"},{"attributes":{"phone_code":0,"cities":[],"name":"Syria"},"id":"SY"},{"attributes":{"phone_code":268,"cities":[],"name":"Swaziland"},"id":"SZ"},{"attributes":{"phone_code":1649,"cities":[],"name":"Turks and Caicos Islands"},"id":"TC"},{"attributes":{"phone_code":235,"cities":[],"name":"Chad"},"id":"TD"},{"attributes":{"phone_code":228,"cities":[],"name":"Togo"},"id":"TG"},{"attributes":{"phone_code":66,"cities":[],"name":"Thailand"},"id":"TH"},{"attributes":{"phone_code":992,"cities":[],"name":"Tajikistan"},"id":"TJ"},{"attributes":{"phone_code":690,"cities":[],"name":"Tokelau"},"id":"TK"},{"attributes":{"phone_code":670,"cities":[],"name":"East Timor"},"id":"TL"},{"attributes":{"phone_code":993,"cities":[],"name":"Turkmenistan"},"id":"TM"},{"attributes":{"phone_code":216,"cities":[],"name":"Tunisia"},"id":"TN"},{"attributes":{"phone_code":676,"cities":[],"name":"Tonga"},"id":"TO"},{"attributes":{"phone_code":90,"cities":[],"name":"Turkey"},"id":"TR"},{"attributes":{"phone_code":1868,"cities":[],"name":"Trinidad and Tobago"},"id":"TT"},{"attributes":{"phone_code":688,"cities":[],"name":"Tuvalu"},"id":"TV"},{"attributes":{"phone_code":0,"cities":[],"name":"Taiwan"},"id":"TW"},{"attributes":{"phone_code":0,"cities":[],"name":"Tanzania"},"id":"TZ"},{"attributes":{"phone_code":380,"cities":[],"name":"Ukraine"},"id":"UA"},{"attributes":{"phone_code":256,"cities":[],"name":"Uganda"},"id":"UG"},{"attributes":{"phone_code":1,"cities":[],"name":"United States"},"id":"US"},{"attributes":{"phone_code":598,"cities":[],"name":"Uruguay"},"id":"UY"},{"attributes":{"phone_code":998,"cities":[],"name":"Uzbekistan"},"id":"UZ"},{"attributes":{"phone_code":0,"cities":[],"name":"Vatican"},"id":"VA"},{"attributes":{"phone_code":0,"cities":[],"name":"Saint Vincent and the Grenadines"},"id":"VC"},{"attributes":{"phone_code":58,"cities":[],"name":"Venezuela"},"id":"VE"},{"attributes":{"phone_code":0,"cities":[],"name":"British Virgin Islands"},"id":"VG"},{"attributes":{"phone_code":0,"cities":[],"name":"U.S. Virgin Islands"},"id":"VI"},{"attributes":{"phone_code":0,"cities":[],"name":"Vietnam"},"id":"VN"},{"attributes":{"phone_code":678,"cities":[],"name":"Vanuatu"},"id":"VU"},{"attributes":{"phone_code":0,"cities":[],"name":"Wallis and Futuna"},"id":"WF"},{"attributes":{"phone_code":0,"cities":[],"name":"Samoa"},"id":"WS"},{"attributes":{"phone_code":0,"cities":[],"name":"Kosovo"},"id":"XK"},{"attributes":{"phone_code":967,"cities":[],"name":"Yemen"},"id":"YE"},{"attributes":{"phone_code":0,"cities":[],"name":"Mayotte"},"id":"YT"},{"attributes":{"phone_code":27,"cities":[],"name":"South Africa"},"id":"ZA"},{"attributes":{"phone_code":8651212,"cities":[],"name":"Raddy ZB"},"id":"ZB"},{"attributes":{"phone_code":260,"cities":[],"name":"Zambia"},"id":"ZM"},{"attributes":{"phone_code":0,"cities":[],"name":"Zimbabwe"},"id":"ZW"}]}